start=new Date('2023-01-17T00:00:00.000Z').valueOf();
sats=[{"CENTER_NAME":"EARTH","REF_FRAME":"TEME","EPHEMERIS_TYPE":"0","RCS_SIZE":"LARGE","SITE":"AFETR","NORAD_CAT_ID":"51721","MEAN_MOTION":"15.08858187","LAUNCH_DATE":"2022-02-21","COUNTRY_CODE":"US","FILE":"3750956","GP_ID":"223252796","APOAPSIS":"541.421","SEMIMAJOR_AXIS":"6917.825","PERIOD":"95.436","RA_OF_ASC_NODE":"83.1419","MEAN_ELEMENT_THEORY":"SGP4","INCLINATION":"53.2152","TLE_LINE2":"2 51721  53.2152  83.1419 0002503  42.8523 317.2664 15.08858187 50102","MEAN_MOTION_DDOT":"0.0000000000000","ARG_OF_PERICENTER":"42.8523","DECAY_DATE":null,"OBJECT_TYPE":"PAYLOAD","TIME_SYSTEM":"UTC","BSTAR":"0.00027011000000","TLE_LINE1":"1 51721U 22016H   23016.58931326  .00004015  00000-0  27011-3 0  9990","MEAN_MOTION_DOT":"0.00004015","ELEMENT_SET_NO":"999","OBJECT_ID":"2022-016H","PERIAPSIS":"537.958","OBJECT_NAME":"STARLINK-3524","EPOCH":"2023-01-16T14:08:36.665664","MEAN_ANOMALY":"317.2664","CLASSIFICATION_TYPE":"U","ECCENTRICITY":"0.00025030","REV_AT_EPOCH":"5010"},{"REF_FRAME":"TEME","CENTER_NAME":"EARTH","EPHEMERIS_TYPE":"0","RCS_SIZE":"LARGE","SITE":"AFETR","NORAD_CAT_ID":"51722","MEAN_MOTION":"15.08830650","LAUNCH_DATE":"2022-02-21","FILE":"3750956","GP_ID":"223253043","COUNTRY_CODE":"US","SEMIMAJOR_AXIS":"6917.909","APOAPSIS":"541.266","PERIOD":"95.438","MEAN_ELEMENT_THEORY":"SGP4","RA_OF_ASC_NODE":"81.7260","TLE_LINE2":"2 51722  53.2194  81.7260 0002157  48.0805 312.0370 15.08830650 50149","INCLINATION":"53.2194","MEAN_MOTION_DDOT":"0.0000000000000","ARG_OF_PERICENTER":"48.0805","OBJECT_TYPE":"PAYLOAD","DECAY_DATE":null,"TIME_SYSTEM":"UTC","BSTAR":"0.00003413100000","ELEMENT_SET_NO":"999","MEAN_MOTION_DOT":"0.00000255","TLE_LINE1":"1 51722U 22016J   23016.90581893  .00000255  00000-0  34131-4 0  9991","OBJECT_ID":"2022-016J","PERIAPSIS":"538.282","MEAN_ANOMALY":"312.0370","EPOCH":"2023-01-16T21:44:22.755552","OBJECT_NAME":"STARLINK-3535","CLASSIFICATION_TYPE":"U","REV_AT_EPOCH":"5014","ECCENTRICITY":"0.00021570"},{"LAUNCH_DATE":"2022-02-21","FILE":"3750956","GP_ID":"223253798","COUNTRY_CODE":"US","SEMIMAJOR_AXIS":"6717.964","APOAPSIS":"340.932","PERIOD":"91.331","MEAN_ELEMENT_THEORY":"SGP4","RA_OF_ASC_NODE":"303.1566","MEAN_MOTION_DDOT":"0.0000000000000","TLE_LINE2":"2 51723  53.2084 303.1566 0001641  29.0342 331.0770 15.76689738 52073","INCLINATION":"53.2084","ARG_OF_PERICENTER":"29.0342","REF_FRAME":"TEME","CENTER_NAME":"EARTH","EPHEMERIS_TYPE":"0","RCS_SIZE":"LARGE","SITE":"AFETR","NORAD_CAT_ID":"51723","MEAN_MOTION":"15.76689738","PERIAPSIS":"338.727","OBJECT_ID":"2022-016K","MEAN_ANOMALY":"331.0770","EPOCH":"2023-01-16T17:52:51.462048","OBJECT_NAME":"STARLINK-3531","CLASSIFICATION_TYPE":"U","REV_AT_EPOCH":"5207","ECCENTRICITY":"0.00016410","DECAY_DATE":null,"OBJECT_TYPE":"PAYLOAD","TIME_SYSTEM":"UTC","BSTAR":"0.00000017850000","ELEMENT_SET_NO":"999","TLE_LINE1":"1 51723U 22016K   23016.74504007 -.00000625  00000-0  17850-6 0  9999","MEAN_MOTION_DOT":"-0.00000625"},{"EPHEMERIS_TYPE":"0","REF_FRAME":"TEME","CENTER_NAME":"EARTH","NORAD_CAT_ID":"51724","MEAN_MOTION":"15.08831044","RCS_SIZE":"LARGE","SITE":"AFETR","SEMIMAJOR_AXIS":"6917.908","APOAPSIS":"541.045","LAUNCH_DATE":"2022-02-21","GP_ID":"223252047","FILE":"3750956","COUNTRY_CODE":"US","INCLINATION":"53.2153","TLE_LINE2":"2 51724  53.2153  81.7637 0001839  60.0842 300.0333 15.08831044 50149","MEAN_MOTION_DDOT":"0.0000000000000","ARG_OF_PERICENTER":"60.0842","PERIOD":"95.438","MEAN_ELEMENT_THEORY":"SGP4","RA_OF_ASC_NODE":"81.7637","BSTAR":"0.00005012400000","OBJECT_TYPE":"PAYLOAD","DECAY_DATE":null,"TIME_SYSTEM":"UTC","ELEMENT_SET_NO":"999","TLE_LINE1":"1 51724U 22016L   23016.89845581  .00000510  00000-0  50124-4 0  9992","MEAN_MOTION_DOT":"0.00000510","EPOCH":"2023-01-16T21:33:46.581984","MEAN_ANOMALY":"300.0333","OBJECT_NAME":"STARLINK-3529","OBJECT_ID":"2022-016L","PERIAPSIS":"538.501","ECCENTRICITY":"0.00018390","REV_AT_EPOCH":"5014","CLASSIFICATION_TYPE":"U"},{"OBJECT_NAME":"STARLINK-3522","MEAN_ANOMALY":"309.3002","EPOCH":"2023-01-16T21:49:38.988192","OBJECT_ID":"2022-016M","PERIAPSIS":"538.821","REV_AT_EPOCH":"5014","ECCENTRICITY":"0.00013210","CLASSIFICATION_TYPE":"U","BSTAR":"-0.00002612500000","TIME_SYSTEM":"UTC","DECAY_DATE":null,"OBJECT_TYPE":"PAYLOAD","TLE_LINE1":"1 51725U 22016M   23016.90947903 -.00000704  00000-0 -26125-4 0  9997","MEAN_MOTION_DOT":"-0.00000704","ELEMENT_SET_NO":"999","APOAPSIS":"540.649","SEMIMAJOR_AXIS":"6917.870","COUNTRY_CODE":"US","FILE":"3750956","GP_ID":"223252296","LAUNCH_DATE":"2022-02-21","TLE_LINE2":"2 51725  53.2171  81.7066 0001321  50.8108 309.3002 15.08843504 50143","ARG_OF_PERICENTER":"50.8108","MEAN_MOTION_DDOT":"0.0000000000000","INCLINATION":"53.2171","RA_OF_ASC_NODE":"81.7066","MEAN_ELEMENT_THEORY":"SGP4","PERIOD":"95.437","EPHEMERIS_TYPE":"0","CENTER_NAME":"EARTH","REF_FRAME":"TEME","MEAN_MOTION":"15.08843504","NORAD_CAT_ID":"51725","SITE":"AFETR","RCS_SIZE":"LARGE"},{"TLE_LINE1":"1 51726U 22016N   23016.87360754 -.00001970  00000-0 -10568-3 0  9996","MEAN_MOTION_DOT":"-0.00001970","ELEMENT_SET_NO":"999","BSTAR":"-0.00010568000000","DECAY_DATE":null,"OBJECT_TYPE":"PAYLOAD","TIME_SYSTEM":"UTC","REV_AT_EPOCH":"5028","ECCENTRICITY":"0.00023630","CLASSIFICATION_TYPE":"U","OBJECT_NAME":"STARLINK-3527","MEAN_ANOMALY":"276.4529","EPOCH":"2023-01-16T20:57:59.691456","PERIAPSIS":"538.125","OBJECT_ID":"2022-016N","NORAD_CAT_ID":"51726","MEAN_MOTION":"15.08835471","RCS_SIZE":"LARGE","SITE":"AFETR","EPHEMERIS_TYPE":"0","CENTER_NAME":"EARTH","REF_FRAME":"TEME","TLE_LINE2":"2 51726  53.2164  71.8725 0002363  83.6732 276.4529 15.08835471 50289","MEAN_MOTION_DDOT":"0.0000000000000","INCLINATION":"53.2164","ARG_OF_PERICENTER":"83.6732","PERIOD":"95.438","RA_OF_ASC_NODE":"71.8725","MEAN_ELEMENT_THEORY":"SGP4","APOAPSIS":"541.394","SEMIMAJOR_AXIS":"6917.894","LAUNCH_DATE":"2022-02-21","COUNTRY_CODE":"US","FILE":"3750956","GP_ID":"223253544"},{"EPHEMERIS_TYPE":"0","CENTER_NAME":"EARTH","REF_FRAME":"TEME","NORAD_CAT_ID":"51727","MEAN_MOTION":"15.08837278","RCS_SIZE":"LARGE","SITE":"AFETR","APOAPSIS":"541.566","SEMIMAJOR_AXIS":"6917.889","LAUNCH_DATE":"2022-02-21","COUNTRY_CODE":"US","GP_ID":"223253298","FILE":"3750956","ARG_OF_PERICENTER":"49.8341","TLE_LINE2":"2 51727  53.2214  81.7359 0002620  49.8341 310.2881 15.08837278 50145","MEAN_MOTION_DDOT":"0.0000000000000","INCLINATION":"53.2214","PERIOD":"95.438","RA_OF_ASC_NODE":"81.7359","MEAN_ELEMENT_THEORY":"SGP4","BSTAR":"0.00005204500000","DECAY_DATE":null,"OBJECT_TYPE":"PAYLOAD","TIME_SYSTEM":"UTC","TLE_LINE1":"1 51727U 22016P   23016.90212635  .00000540  00000-0  52045-4 0  9992","MEAN_MOTION_DOT":"0.00000540","ELEMENT_SET_NO":"999","OBJECT_NAME":"STARLINK-3532","EPOCH":"2023-01-16T21:39:03.716640","MEAN_ANOMALY":"310.2881","PERIAPSIS":"537.941","OBJECT_ID":"2022-016P","ECCENTRICITY":"0.00026200","REV_AT_EPOCH":"5014","CLASSIFICATION_TYPE":"U"},{"EPHEMERIS_TYPE":"0","CENTER_NAME":"EARTH","REF_FRAME":"TEME","NORAD_CAT_ID":"51728","MEAN_MOTION":"15.08841946","RCS_SIZE":"LARGE","SITE":"AFETR","APOAPSIS":"541.034","SEMIMAJOR_AXIS":"6917.874","LAUNCH_DATE":"2022-02-21","COUNTRY_CODE":"US","FILE":"3750956","GP_ID":"223252547","MEAN_MOTION_DDOT":"0.0000000000000","TLE_LINE2":"2 51728  53.2128  71.9176 0001871  51.0640 309.0519 15.08841946 50288","INCLINATION":"53.2128","ARG_OF_PERICENTER":"51.0640","PERIOD":"95.437","RA_OF_ASC_NODE":"71.9176","MEAN_ELEMENT_THEORY":"SGP4","BSTAR":"-0.00000711170000","DECAY_DATE":null,"OBJECT_TYPE":"PAYLOAD","TIME_SYSTEM":"UTC","TLE_LINE1":"1 51728U 22016Q   23016.86624081 -.00000401  00000-0 -71117-5 0  9990","MEAN_MOTION_DOT":"-0.00000401","ELEMENT_SET_NO":"999","OBJECT_NAME":"STARLINK-3448","MEAN_ANOMALY":"309.0519","EPOCH":"2023-01-16T20:47:23.205984","OBJECT_ID":"2022-016Q","PERIAPSIS":"538.445","REV_AT_EPOCH":"5028","ECCENTRICITY":"0.00018710","CLASSIFICATION_TYPE":"U"},{"TIME_SYSTEM":"UTC","OBJECT_TYPE":"PAYLOAD","DECAY_DATE":null,"BSTAR":"0.00011361000000","ELEMENT_SET_NO":"999","TLE_LINE1":"1 51729U 22016R   23016.87723971  .00001521  00000-0  11361-3 0  9995","MEAN_MOTION_DOT":"0.00001521","OBJECT_ID":"2022-016R","PERIAPSIS":"537.438","MEAN_ANOMALY":"337.9185","EPOCH":"2023-01-16T21:03:13.510944","OBJECT_NAME":"STARLINK-3523","CLASSIFICATION_TYPE":"U","REV_AT_EPOCH":"5028","ECCENTRICITY":"0.00032500","REF_FRAME":"TEME","CENTER_NAME":"EARTH","EPHEMERIS_TYPE":"0","SITE":"AFETR","RCS_SIZE":"LARGE","MEAN_MOTION":"15.08859263","NORAD_CAT_ID":"51729","FILE":"3750956","GP_ID":"223252797","COUNTRY_CODE":"US","LAUNCH_DATE":"2022-02-21","SEMIMAJOR_AXIS":"6917.822","APOAPSIS":"541.935","MEAN_ELEMENT_THEORY":"SGP4","RA_OF_ASC_NODE":"71.8627","PERIOD":"95.436","TLE_LINE2":"2 51729  53.2198  71.8627 0003250  22.1947 337.9185 15.08859263 50288","INCLINATION":"53.2198","MEAN_MOTION_DDOT":"0.0000000000000","ARG_OF_PERICENTER":"22.1947"},{"MEAN_MOTION":"15.08823777","NORAD_CAT_ID":"51730","SITE":"AFETR","RCS_SIZE":"LARGE","EPHEMERIS_TYPE":"0","REF_FRAME":"TEME","CENTER_NAME":"EARTH","TLE_LINE2":"2 51730  53.2133  71.9398 0002077  32.4244 327.6875 15.08823777 50288","INCLINATION":"53.2133","MEAN_MOTION_DDOT":"0.0000000000000","ARG_OF_PERICENTER":"32.4244","MEAN_ELEMENT_THEORY":"SGP4","RA_OF_ASC_NODE":"71.9398","PERIOD":"95.439","SEMIMAJOR_AXIS":"6917.930","APOAPSIS":"541.232","GP_ID":"223253044","FILE":"3750956","COUNTRY_CODE":"US","LAUNCH_DATE":"2022-02-21","ELEMENT_SET_NO":"999","MEAN_MOTION_DOT":"0.00000659","TLE_LINE1":"1 51730U 22016S   23016.85888692  .00000659  00000-0  59558-4 0  9999","BSTAR":"0.00005955800000","TIME_SYSTEM":"UTC","DECAY_DATE":null,"OBJECT_TYPE":"PAYLOAD","ECCENTRICITY":"0.00020770","REV_AT_EPOCH":"5028","CLASSIFICATION_TYPE":"U","EPOCH":"2023-01-16T20:36:47.829888","MEAN_ANOMALY":"327.6875","OBJECT_NAME":"STARLINK-3530","OBJECT_ID":"2022-016S","PERIAPSIS":"538.358"}];
